LANDSAT 9               
1 49260U 21088A   24156.12356363  .00000735  00000+0  17310-3 0  9996
2 49260  98.1874 225.9636 0001023  91.4333 268.6983 14.57115528142785
